[{"OBJECT_NAME":"GAOFEN-9 05","OBJECT_ID":"2020-058A","EPOCH":"2026-03-10T00:01:50.876256","MEAN_MOTION":15.30293976,"ECCENTRICITY":0.0010522,"INCLINATION":97.2228,"RA_OF_ASC_NODE":111.963,"ARG_OF_PERICENTER":91.0204,"MEAN_ANOMALY":269.2242,"EPHEMERIS_TYPE":0,"CLASSIFICATION_TYPE":"U","NORAD_CAT_ID":46232,"ELEMENT_SET_NO":999,"REV_AT_EPOCH":30843,"BSTAR":0.00025120304,"MEAN_MOTION_DOT":7.299e-5,"MEAN_MOTION_DDOT":0},{"OBJECT_NAME":"STARLINK-35135","OBJECT_ID":"2025-210H","EPOCH":"2026-03-09T23:06:59.058720","MEAN_MOTION":15.30197797,"ECCENTRICITY":9.846e-5,"INCLINATION":53.1613,"RA_OF_ASC_NODE":305.7579,"ARG_OF_PERICENTER":92.0819,"MEAN_ANOMALY":268.0294,"EPHEMERIS_TYPE":0,"CLASSIFICATION_TYPE":"U","NORAD_CAT_ID":65629,"ELEMENT_SET_NO":999,"REV_AT_EPOCH":2777,"BSTAR":0.0005981416,"MEAN_MOTION_DOT":0.00017396,"MEAN_MOTION_DDOT":0}]
